{"type": "FeatureCollection", "features": [ {"type": "Feature", "properties": {"norad_id": 43010, "name": "FENGYUN 3D", "group": "weather", "lat": 78.80793337576135, "lon": -92.55677162964292, "alt_km": 818.8009313342745, "timestamp": "2025-12-20T03:42:47.035578+00:00", "meta": {"OBJECT_NAME": "FENGYUN 3D", "OBJECT_ID": "2017-072A", "EPOCH": "2025-12-19T18:51:53.159616", "MEAN_MOTION": 14.19684655, "ECCENTRICITY": 0.0001309, "INCLINATION": 98.9893, "RA_OF_ASC_NODE": 320.2014, "ARG_OF_PERICENTER": 159.1228, "MEAN_ANOMALY": 201.0001, "EPHEMERIS_TYPE": 0, "CLASSIFICATION_TYPE": "U", "NORAD_CAT_ID": 43010, "ELEMENT_SET_NO": 999, "REV_AT_EPOCH": 41953, "BSTAR": -0.00014027, "MEAN_MOTION_DOT": -3.43e-06, "MEAN_MOTION_DDOT": 0}, "tle": {"line1": "1 43010U 17072A   25353.78603194 -.00000343  00000+0 -14027-3 0  9999", "line2": "2 43010  98.9893 320.2014 0001309 159.1228 201.0001 14.19684655419534"}}, "geometry": {"type": "Point", "coordinates": [-92.55677162964292, 78.80793337576135]}}, {"type": "Feature", "properties": {"norad_id": 43013, "name": "NOAA 20 (JPSS-1)", "group": "weather", "lat": -50.566987926546965, "lon": 99.56284049082981, "alt_km": 835.2136433645101, "timestamp": "2025-12-20T03:42:47.035589+00:00", "meta": {"OBJECT_NAME": "NOAA 20 (JPSS-1)", "OBJECT_ID": "2017-073A", "EPOCH": "2025-12-19T18:10:06.699072", "MEAN_MOTION": 14.19527449, "ECCENTRICITY": 0.0002123, "INCLINATION": 98.7608, "RA_OF_ASC_NODE": 289.9772, "ARG_OF_PERICENTER": 77.1387, "MEAN_ANOMALY": 283.0026, "EPHEMERIS_TYPE": 0, "CLASSIFICATION_TYPE": "U", "NORAD_CAT_ID": 43013, "ELEMENT_SET_NO": 999, "REV_AT_EPOCH": 41901, "BSTAR": 4.0225e-05, "MEAN_MOTION_DOT": 4.1e-07, "MEAN_MOTION_DDOT": 0}, "tle": {"line1": "1 43013U 17073A   25353.75702198  .00000041  00000+0  40225-4 0  9997", "line2": "2 43013  98.7608 289.9772 0002123  77.1387 283.0026 14.19527449419018"}}, "geometry": {"type": "Point", "coordinates": [99.56284049082981, -50.566987926546965]}}, {"type": "Feature", "properties": {"norad_id": 43226, "name": "GOES 17", "group": "weather", "lat": -0.2412214830108388, "lon": 55.20159523246665, "alt_km": 35795.610618319035, "timestamp": "2025-12-20T03:42:47.035615+00:00", "meta": {"OBJECT_NAME": "GOES 17", "OBJECT_ID": "2018-022A", "EPOCH": "2025-12-19T11:26:17.750976", "MEAN_MOTION": 1.00270964, "ECCENTRICITY": 0.0003082, "INCLINATION": 0.474, "RA_OF_ASC_NODE": 89.1739, "ARG_OF_PERICENTER": 191.1693, "MEAN_ANOMALY": 250.0534, "EPHEMERIS_TYPE": 0, "CLASSIFICATION_TYPE": "U", "NORAD_CAT_ID": 43226, "ELEMENT_SET_NO": 999, "REV_AT_EPOCH": 2862, "BSTAR": 0, "MEAN_MOTION_DOT": -1.58e-06, "MEAN_MOTION_DDOT": 0}, "tle": {"line1": "1 43226U 18022A   25353.47659434 -.00000158  00000+0  00000+0 0  9993", "line2": "2 43226   0.4740  89.1739 0003082 191.1693 250.0534  1.00270964 28620"}}, "geometry": {"type": "Point", "coordinates": [55.20159523246665, -0.2412214830108388]}}, {"type": "Feature", "properties": {"norad_id": 43491, "name": "FENGYUN 2H", "group": "weather", "lat": 1.534797913626043, "lon": -135.94766508227062, "alt_km": 35776.74412653414, "timestamp": "2025-12-20T03:42:47.035632+00:00", "meta": {"OBJECT_NAME": "FENGYUN 2H", "OBJECT_ID": "2018-050A", "EPOCH": "2025-12-19T20:29:17.903616", "MEAN_MOTION": 1.00271278, "ECCENTRICITY": 0.0002387, "INCLINATION": 2.5685, "RA_OF_ASC_NODE": 81.2551, "ARG_OF_PERICENTER": 165.7305, "MEAN_ANOMALY": 228.3876, "EPHEMERIS_TYPE": 0, "CLASSIFICATION_TYPE": "U", "NORAD_CAT_ID": 43491, "ELEMENT_SET_NO": 999, "REV_AT_EPOCH": 2764, "BSTAR": 0, "MEAN_MOTION_DOT": -1.08e-06, "MEAN_MOTION_DDOT": 0}, "tle": {"line1": "1 43491U 18050A   25353.85367944 -.00000108  00000+0  00000+0 0  9997", "line2": "2 43491   2.5685  81.2551 0002387 165.7305 228.3876  1.00271278 27641"}}, "geometry": {"type": "Point", "coordinates": [-135.94766508227062, 1.534797913626043]}}, {"type": "Feature", "properties": {"norad_id": 43689, "name": "METOP-C", "group": "weather", "lat": 63.11682306947984, "lon": 34.247499407719594, "alt_km": 813.6297750822278, "timestamp": "2025-12-20T03:42:47.035644+00:00", "meta": {"OBJECT_NAME": "METOP-C", "OBJECT_ID": "2018-087A", "EPOCH": "2025-12-19T18:57:51.568416", "MEAN_MOTION": 14.2148694, "ECCENTRICITY": 9.06e-05, "INCLINATION": 98.692, "RA_OF_ASC_NODE": 51.4515, "ARG_OF_PERICENTER": 27.4017, "MEAN_ANOMALY": 332.7208, "EPHEMERIS_TYPE": 0, "CLASSIFICATION_TYPE": "U", "NORAD_CAT_ID": 43689, "ELEMENT_SET_NO": 999, "REV_AT_EPOCH": 36934, "BSTAR": 6.5062e-05, "MEAN_MOTION_DOT": 9.9e-07, "MEAN_MOTION_DDOT": 0}, "tle": {"line1": "1 43689U 18087A   25353.79018019  .00000099  00000+0  65062-4 0  9997", "line2": "2 43689  98.6920  51.4515 0000906  27.4017 332.7208 14.21486940369342"}}, "geometry": {"type": "Point", "coordinates": [34.247499407719594, 63.11682306947984]}}, {"type": "Feature", "properties": {"norad_id": 43823, "name": "GEO-KOMPSAT-2A", "group": "weather", "lat": -0.010558622895584818, "lon": -87.04995558351008, "alt_km": 35788.06457393417, "timestamp": "2025-12-20T03:42:47.035656+00:00", "meta": {"OBJECT_NAME": "GEO-KOMPSAT-2A", "OBJECT_ID": "2018-100A", "EPOCH": "2025-12-19T15:35:04.232256", "MEAN_MOTION": 1.00271282, "ECCENTRICITY": 4.19e-05, "INCLINATION": 0.0523, "RA_OF_ASC_NODE": 150.9174, "ARG_OF_PERICENTER": 308.3469, "MEAN_ANOMALY": 351.2698, "EPHEMERIS_TYPE": 0, "CLASSIFICATION_TYPE": "U", "NORAD_CAT_ID": 43823, "ELEMENT_SET_NO": 999, "REV_AT_EPOCH": 2583, "BSTAR": 0, "MEAN_MOTION_DOT": -3.19e-06, "MEAN_MOTION_DDOT": 0}, "tle": {"line1": "1 43823U 18100A   25353.64935454 -.00000319  00000+0  00000+0 0  9990", "line2": "2 43823   0.0523 150.9174 0000419 308.3469 351.2698  1.00271282 25831"}}, "geometry": {"type": "Point", "coordinates": [-87.04995558351008, -0.010558622895584818]}}, {"type": "Feature", "properties": {"norad_id": 44387, "name": "METEOR-M2 2", "group": "weather", "lat": -33.2139491528628, "lon": 148.08774866985735, "alt_km": 816.7785034176295, "timestamp": "2025-12-20T03:42:47.035668+00:00", "meta": {"OBJECT_NAME": "METEOR-M2 2", "OBJECT_ID": "2019-038A", "EPOCH": "2025-12-19T21:39:20.054880", "MEAN_MOTION": 14.2429413, "ECCENTRICITY": 0.0001588, "INCLINATION": 98.897, "RA_OF_ASC_NODE": 333.7188, "ARG_OF_PERICENTER": 133.5734, "MEAN_ANOMALY": 226.5576, "EPHEMERIS_TYPE": 0, "CLASSIFICATION_TYPE": "U", "NORAD_CAT_ID": 44387, "ELEMENT_SET_NO": 999, "REV_AT_EPOCH": 33577, "BSTAR": -1.34e-05, "MEAN_MOTION_DOT": -7.7e-07, "MEAN_MOTION_DDOT": 0}, "tle": {"line1": "1 44387U 19038A   25353.90231545 -.00000077  00000+0 -13400-4 0  9991", "line2": "2 44387  98.8970 333.7188 0001588 133.5734 226.5576 14.24294130335778"}}, "geometry": {"type": "Point", "coordinates": [148.08774866985735, -33.2139491528628]}}, {"type": "Feature", "properties": {"norad_id": 47719, "name": "ARKTIKA-M 1", "group": "weather", "lat": 53.82946368125193, "lon": 126.75308244057176, "alt_km": 30801.511027706965, "timestamp": "2025-12-20T03:42:47.035681+00:00", "meta": {"OBJECT_NAME": "ARKTIKA-M 1", "OBJECT_ID": "2021-016A", "EPOCH": "2025-12-19T01:20:05.580096", "MEAN_MOTION": 2.00630571, "ECCENTRICITY": 0.7207407, "INCLINATION": 63.1758, "RA_OF_ASC_NODE": 83.1314, "ARG_OF_PERICENTER": 269.1504, "MEAN_ANOMALY": 15.5629, "EPHEMERIS_TYPE": 0, "CLASSIFICATION_TYPE": "U", "NORAD_CAT_ID": 47719, "ELEMENT_SET_NO": 999, "REV_AT_EPOCH": 3517, "BSTAR": 0, "MEAN_MOTION_DOT": -1.23e-06, "MEAN_MOTION_DDOT": 0}, "tle": {"line1": "1 47719U 21016A   25353.05562014 -.00000123  00000+0  00000+0 0  9994", "line2": "2 47719  63.1758  83.1314 7207407 269.1504  15.5629  2.00630571 35172"}}, "geometry": {"type": "Point", "coordinates": [126.75308244057176, 53.82946368125193]}}, {"type": "Feature", "properties": {"norad_id": 49008, "name": "FENGYUN 3E", "group": "weather", "lat": 54.088174836297135, "lon": -17.686085911952986, "alt_km": 821.0840217726845, "timestamp": "2025-12-20T03:42:47.035700+00:00", "meta": {"OBJECT_NAME": "FENGYUN 3E", "OBJECT_ID": "2021-062A", "EPOCH": "2025-12-19T20:41:23.356032", "MEAN_MOTION": 14.19880008, "ECCENTRICITY": 7.11e-05, "INCLINATION": 98.7468, "RA_OF_ASC_NODE": 354.2989, "ARG_OF_PERICENTER": 213.3862, "MEAN_ANOMALY": 146.727, "EPHEMERIS_TYPE": 0, "CLASSIFICATION_TYPE": "U", "NORAD_CAT_ID": 49008, "ELEMENT_SET_NO": 999, "REV_AT_EPOCH": 23113, "BSTAR": -3.4916e-05, "MEAN_MOTION_DOT": -1.18e-06, "MEAN_MOTION_DDOT": 0}, "tle": {"line1": "1 49008U 21062A   25353.86207588 -.00000118  00000+0 -34916-4 0  9992", "line2": "2 49008  98.7468 354.2989 0000711 213.3862 146.7270 14.19880008231135"}}, "geometry": {"type": "Point", "coordinates": [-17.686085911952986, 54.088174836297135]}}, {"type": "Feature", "properties": {"norad_id": 51850, "name": "GOES 18", "group": "weather", "lat": -0.0004517341164458869, "lon": 7.727954505804018, "alt_km": 35784.03203838674, "timestamp": "2025-12-20T03:42:47.035712+00:00", "meta": {"OBJECT_NAME": "GOES 18", "OBJECT_ID": "2022-021A", "EPOCH": "2025-12-19T13:06:13.924800", "MEAN_MOTION": 1.00280535, "ECCENTRICITY": 0.0001032, "INCLINATION": 0.0096, "RA_OF_ASC_NODE": 238.6381, "ARG_OF_PERICENTER": 33.0454, "MEAN_ANOMALY": 236.2852, "EPHEMERIS_TYPE": 0, "CLASSIFICATION_TYPE": "U", "NORAD_CAT_ID": 51850, "ELEMENT_SET_NO": 999, "REV_AT_EPOCH": 479, "BSTAR": 0, "MEAN_MOTION_DOT": 1.2e-06, "MEAN_MOTION_DDOT": 0}, "tle": {"line1": "1 51850U 22021A   25353.54599450  .00000120  00000+0  00000+0 0  9996", "line2": "2 51850   0.0096 238.6381 0001032  33.0454 236.2852  1.00280535  4794"}}, "geometry": {"type": "Point", "coordinates": [7.727954505804018, -0.0004517341164458869]}}]}